TRANSPORTER-16 OBJECT Q
1 68430U 26067Q   26104.13402597  .00004671  00000+0  23163-3 0  9991
2 68430  97.4450  63.5596 0001914 106.4163 253.7282 15.18211472  2229
