{
  "norad_id": 68430,
  "name": "TRANSPORTER-16 OBJECT Q",
  "history": [
    {
      "epoch": "2026-04-14T03:12:59.843808Z",
      "apogee_km": 512.5651752987542,
      "perigee_km": 509.9268171865133,
      "latitude_deg": 4.461154321176925e-05,
      "longitude_deg": 172.99542952233782,
      "height_km": 514.702715514823,
      "semi_major_axis_km": 6889.382996242633,
      "eccentricity": 0.00019148,
      "inclination_deg": 97.445,
      "raan_deg": 63.5596,
      "arg_perigee_deg": 106.4163,
      "mean_anomaly_deg": 253.7282,
      "mean_motion_rev_day": 15.18211472
    }
  ]
}